STARLINK-5501           
1 55648U 23021W   26068.71060223 -.00000619  00000+0 -44076-4 0  9991
2 55648  70.0012 184.4395 0003089 264.3482  95.7325 14.98328021168793
TOMORROW-S7             
1 63631U 25081B   26068.64931870  .00002135  00000+0  19093-3 0  9990
2 63631  45.3909 132.5570 0000463 121.9907 238.1016 14.99242141 48231
